1 08820U 76039A   03288.84464227  .00000001  00000-0  10000-3 0  9828
2 08820 109.8219 222.8953 0044353 275.6025  83.9502  6.38664600384761
